ORBCOMM FM05            
1 25117U 97084F   25294.84525569  .00002654  00000+0  77132-3 0  9999
2 25117  45.0122 119.7352 0002908 134.3288 225.7803 14.46409451458943
ORBCOMM FM06            
1 25118U 97084G   25294.77773514  .00002843  00000+0  82081-3 0  9996
2 25118  45.0115 119.6503 0001819 134.1237 341.0437 14.46566081459854
ORBCOMM FM07            
1 25119U 97084H   25294.83764486  .00002566  00000+0  74432-3 0  9995
2 25119  45.0111 120.1206 0003718 130.8307 229.2867 14.46582852459857
ORBCOMM FM03            
1 25158U 98007B   25294.81990561  .00001764  00000+0  66009-3 0  9997
2 25158 107.9631  35.7816 0043214  24.9528 335.3689 14.34825231442206
ORBCOMM FM04            
1 25159U 98007C   25294.78247130  .00001867  00000+0  69368-3 0  9996
2 25159 107.9625  39.0098 0039064  22.0252 338.2557 14.35068258442384
ORBCOMM FM17            
1 25413U 98046A   25294.59959234  .00001682  00000+0  62975-3 0  9998
2 25413  44.9956  20.8941 0003073 166.2299 193.8632 14.35370503421332
ORBCOMM FM18            
1 25414U 98046B   25294.31305218  .00002292  00000+0  78229-3 0  9993
2 25414  44.9918 296.2374 0005494 224.8745 135.1660 14.38931028422414
ORBCOMM FM19            
1 25415U 98046C   25294.27937347  .00002079  00000+0  71645-3 0  9991
2 25415  44.9946 298.5923 0004223 227.6588 147.6901 14.38745856422368
